GLOBALSTAR M001         
1 25162U 98008A   24329.09729427 -.00000027  00000+0  53115-3 0  9998
2 25162  52.0017 210.1520 0001573 135.5809  20.4328 12.38201663218418
GLOBALSTAR M004         
1 25163U 98008B   24329.09472375 -.00000036  00000+0  37385-3 0  9997
2 25163  52.0010 319.8330 0002790 190.9848 248.2986 12.63379499235867
GLOBALSTAR M002         
1 25164U 98008C   24329.43449637 -.00000082  00000+0 -10920-3 0  9999
2 25164  52.0042  33.5848 0001844 134.0195 226.0778 11.61505967160341
GLOBALSTAR M003         
1 25165U 98008D   24328.64088060  .00000020  00000+0  11685-2 0  9999
2 25165  51.9994  17.7883 0007978 237.2554 294.1810 12.12055013208297
GLOBALSTAR M014         
1 25306U 98023A   24329.33870062 -.00000043  00000+0  64053-3 0  9995
2 25306  51.9854 321.3590 0001138 351.9434 151.8525 11.65475114167270
GLOBALSTAR M006         
1 25307U 98023B   24328.65690803 -.00000077  00000+0 -29580-4 0  9998
2 25307  51.9970   7.8734 0003760  96.7262  52.6096 11.58169869193013
GLOBALSTAR M015         
1 25308U 98023C   24329.41560987 -.00000050  00000+0  53182-3 0  9997
2 25308  51.9811  95.0668 0013391  74.9422 358.9222 11.48855026170913
GLOBALSTAR M008         
1 25309U 98023D   24328.77594003 -.00000063  00000+0  25951-3 0  9999
2 25309  51.9978  73.5868 0003318 107.2713  28.4615 12.36056360212444
